[{"OBJECT_NAME":"TEVEL2-9","OBJECT_ID":"2025-052AD","EPOCH":"2026-03-09T16:51:18.321696","MEAN_MOTION":15.28633834,"ECCENTRICITY":0.000799,"INCLINATION":97.4057,"RA_OF_ASC_NODE":324.3929,"ARG_OF_PERICENTER":124.2475,"MEAN_ANOMALY":235.9522,"EPHEMERIS_TYPE":0,"CLASSIFICATION_TYPE":"U","NORAD_CAT_ID":63237,"ELEMENT_SET_NO":999,"REV_AT_EPOCH":5481,"BSTAR":0.00067240159,"MEAN_MOTION_DOT":0.00018694,"MEAN_MOTION_DDOT":0},{"OBJECT_NAME":"STARLINK-34116","OBJECT_ID":"2025-095A","EPOCH":"2026-03-09T08:21:00.589536","MEAN_MOTION":15.27595514,"ECCENTRICITY":8.912e-5,"INCLINATION":42.9987,"RA_OF_ASC_NODE":178.3202,"ARG_OF_PERICENTER":237.4677,"MEAN_ANOMALY":122.6089,"EPHEMERIS_TYPE":0,"CLASSIFICATION_TYPE":"U","NORAD_CAT_ID":63890,"ELEMENT_SET_NO":999,"REV_AT_EPOCH":4773,"BSTAR":0.0013848613,"MEAN_MOTION_DOT":0.00038061,"MEAN_MOTION_DDOT":0}]
